[{"OBJECT_NAME":"ASNARO-2","OBJECT_ID":"2018-007A","EPOCH":"2026-03-08T18:06:21.285792","MEAN_MOTION":15.22434719,"ECCENTRICITY":0.00020856,"INCLINATION":97.403,"RA_OF_ASC_NODE":76.2222,"ARG_OF_PERICENTER":88.5161,"MEAN_ANOMALY":271.6314,"EPHEMERIS_TYPE":0,"CLASSIFICATION_TYPE":"U","NORAD_CAT_ID":43152,"ELEMENT_SET_NO":999,"REV_AT_EPOCH":45213,"BSTAR":0.00060724701,"MEAN_MOTION_DOT":0.00013989,"MEAN_MOTION_DDOT":0},{"OBJECT_NAME":"OBJECT V","OBJECT_ID":"2025-313V","EPOCH":"2026-03-09T22:24:14.678208","MEAN_MOTION":15.21825421,"ECCENTRICITY":0.00137871,"INCLINATION":97.401,"RA_OF_ASC_NODE":145.2021,"ARG_OF_PERICENTER":3.3713,"MEAN_ANOMALY":356.7614,"EPHEMERIS_TYPE":0,"CLASSIFICATION_TYPE":"U","NORAD_CAT_ID":67267,"ELEMENT_SET_NO":999,"REV_AT_EPOCH":1085,"BSTAR":0.00061746121,"MEAN_MOTION_DOT":0.00014007,"MEAN_MOTION_DDOT":0}]
